[{"OBJECT_NAME":"ICEYE-X7","OBJECT_ID":"2020-068L","EPOCH":"2026-03-09T22:52:28.702272","MEAN_MOTION":15.29152508,"ECCENTRICITY":0.00068409,"INCLINATION":97.7412,"RA_OF_ASC_NODE":31.2076,"ARG_OF_PERICENTER":332.3045,"MEAN_ANOMALY":27.7829,"EPHEMERIS_TYPE":0,"CLASSIFICATION_TYPE":"U","NORAD_CAT_ID":46496,"ELEMENT_SET_NO":999,"REV_AT_EPOCH":29961,"BSTAR":0.0005654802,"MEAN_MOTION_DOT":0.00015947,"MEAN_MOTION_DDOT":0},{"OBJECT_NAME":"STARLINK-34048","OBJECT_ID":"2025-092N","EPOCH":"2026-03-09T07:33:41.859648","MEAN_MOTION":15.27586411,"ECCENTRICITY":7.705e-5,"INCLINATION":42.9972,"RA_OF_ASC_NODE":174.9792,"ARG_OF_PERICENTER":251.6672,"MEAN_ANOMALY":108.4096,"EPHEMERIS_TYPE":0,"CLASSIFICATION_TYPE":"U","NORAD_CAT_ID":63816,"ELEMENT_SET_NO":999,"REV_AT_EPOCH":4860,"BSTAR":0.00089271593,"MEAN_MOTION_DOT":0.0002439,"MEAN_MOTION_DDOT":0}]
